CCSDS_OEM_VERS = 2.0
CREATION_DATE = 2025-12-20T22:19:00
ORIGINATOR = Nyx Space/ANISE

META_START
OBJECT_NAME = LUNAR RECONAISSANCE ORBITER
OBJECT_ID = 2010-LRO
CENTER_NAME = MOON
REF_FRAME = EME2000
TIME_SYSTEM = UTC
START_TIME = 2024-01-01T00:00:00.000000
USEABLE_START_TIME = 2024-01-01T00:00:00.000000
USEABLE_STOP_TIME = 2024-01-01T00:03:00.000000
STOP_TIME = 2024-01-01T00:03:00.000000
INTERPOLATION = HERMITE
INTERPOLATION_DEGREE = 7
META_STOP

COMMENT Manually created from the Nyx LRO example
COMMENT The example data includes intermediate steps not added to the OEM but tested in the ANISE tests.
COMMENT Nyx reports the covariance in the EME2000 and RIC frames by default, so we can test that ANISE correctly rotates the matrix.

2024-01-01T00:00:00.000000 -197.253745 1098.651792 -1456.501883 -1.085836 0.9095    0.80923 
2024-01-01T00:01:00.000000 -262.088605 1151.687385 -1405.978582 -1.074949 0.85611   0.877168 
2024-01-01T00:02:00.000000 -326.191114 1201.14448  -1351.026222 -1.061019 0.799418  0.943868 
2024-01-01T00:03:00.000000 -389.345943 1247.597262 -1292.793247 -1.044016 0.742253  1.005408


COVARIANCE_START
EPOCH = 2024-01-01T00:00:00.000000
0.122947
0.237662 0.659923
0.143074 -0.054227 0.717355
-7.3020e-8 -3.4980e-7 2.6103e-7 0.000012
2.7673e-8 1.3258e-7 -9.8950e-8 0.000024 0.000066
1.6666e-8 7.9828e-8 -5.9561e-8 0.000014 0.000005 0.000072


EPOCH = 2024-01-01T00:01:00.000000
0.166511
0.321501 0.876508
0.195248 -0.046731 0.933557
0.000721 0.001394 0.000845 0.000012
0.001397 0.003893 -0.000342 0.000024 0.000066
0.00084 -0.000332 0.004234 0.000014 0.000006 0.000072

EPOCH = 2024-01-01T00:02:00.000000
0.295843
0.564566 1.425887
0.358532 0.106223 1.394821
0.001435 0.002746 0.001727 0.000012
0.002757 0.007259 0.000025 0.000023 0.000064
0.001714 0.000051 0.00743 0.000014 0.000003 0.000068


EPOCH = 2024-01-01T00:03:00.000000
COV_REF_FRAME = EME2000
0.508805
0.947728 2.089291
0.655565 0.683793 1.737083
0.002131 0.003986 0.002717 0.000012
0.004002 0.009316 0.002065 0.000023 0.000057
0.002699 0.002099 0.008346 0.000015 0.000005 0.000055

COVARIANCE_STOP
